{"spkid": "20152680", "covariance": {"epoch": "2459110.5", "labels": ["e", "q", "tp", "node", "peri", "i"], "data": [["1.778936176456034E-15", "-2.551730992116354E-15", "4.685296019623802E-13", "-5.544039150969116E-14", "2.074527675551051E-13", "1.110478211621943E-14"], ["-2.551730992116354E-15", "3.660790086567218E-15", "-6.546962327595747E-13", "8.159424888543861E-14", "-2.974220891731383E-13", "-1.567080358656877E-14"], ["4.685296019623802E-13", "-6.546962327595747E-13", "7.490111449615519E-10", "1.844430691333599E-10", "-4.082531411246059E-11", "2.231089666216267E-11"], ["-5.544039150969116E-14", "8.159424888543861E-14", "1.844430691333599E-10", "9.197553285136698E-10", "-8.546428827241139E-10", "-1.452925793117655E-11"], ["2.074527675551051E-13", "-2.974220891731383E-13", "-4.082531411246059E-11", "-8.546428827241139E-10", "8.35881752468767E-10", "2.006710985136958E-11"], ["1.110478211621943E-14", "-1.567080358656877E-14", "2.231089666216267E-11", "-1.452925793117655E-11", "2.006710985136958E-11", "3.130569598809447E-11"]], "elements": [{"label": "e", "name": "e", "sigma": 4.21774368170475e-08, "units": null, "value": ".639722183790094", "title": "eccentricity"}, {"units": "au", "title": "perihelion distance", "value": ".5215717327123122", "name": "q", "sigma": 6.05044633607077e-08, "label": "q"}, {"label": "tp", "title": "time of perihelion passage", "value": "2459298.415001727720", "units": "TDB", "sigma": 2.73680679800667e-05, "name": "tp"}, {"label": "node", "name": "om", "sigma": 3.03274682179979e-05, "units": "deg", "title": "longitude of the ascending node", "value": "98.58175538647357"}, {"label": "peri", "sigma": 2.89116196790973e-05, "name": "w", "units": "deg", "title": "argument of perihelion", "value": "260.0613972033937"}, {"label": "i", "units": "deg", "title": "inclination", "value": "10.93085650865486", "name": "i", "sigma": 5.59514932670206e-06}]}, "elements": [{"sigma": "4.2158E-8", "name": "e", "title": "eccentricity", "value": ".63962057609031", "units": null, "label": "e"}, {"label": "a", "units": "au", "value": "1.447750069934219", "title": "semi-major axis", "name": "a", "sigma": "2.2095E-9"}, {"label": "q", "value": ".5217393361681074", "title": "perihelion distance", "units": "au", "sigma": "6.0538E-8", "name": "q"}, {"label": "i", "value": "10.92936654146364", "title": "inclination; angle with respect to x-y ecliptic plane", "units": "deg", "name": "i", "sigma": "5.5957E-6"}, {"label": "node", "title": "longitude of the ascending node", "value": "98.5395482969421", "units": "deg", "name": "om", "sigma": "3.0327E-5"}, {"label": "peri", "title": "argument of perihelion", "value": "260.0999952240426", "units": "deg", "sigma": "2.8912E-5", "name": "w"}, {"label": "M", "title": "mean anomaly", "value": "356.1959868172014", "units": "deg", "name": "ma", "sigma": "1.7829E-5"}, {"units": "TDB", "value": "2461207.223235614599", "title": "time of perihelion passage", "name": "tp", "sigma": "3.1525E-5", "label": "tp"}, {"sigma": "1.4566E-6", "name": "per", "units": "d", "value": "636.2661497074586", "title": "sidereal orbital period", "label": "period"}, {"label": "n", "value": ".56580096264043", "title": "mean motion", "units": "deg/d", "sigma": "1.2953E-9", "name": "n"}, {"label": "Q", "units": "au", "value": "2.373760803700331", "title": "aphelion distance", "sigma": "3.6228E-9", "name": "ad"}], "epoch": "2461200.5"}